IRIDIUM 57              
1 25273U 98019B   24358.12933736  .00000731  00000+0  24687-3 0  9992
2 25273  86.3971 218.9557 0001945  84.6384 275.5034 14.35647370399528
IRIDIUM 63              
1 25286U 98021B   24358.42442666  .00001073  00000+0  36084-3 0  9993
2 25286  86.4001 155.8241 0002144  93.2660 266.8783 14.36262736398614
IRIDIUM 69              
1 25319U 98026A   24358.41678135  .00001009  00000+0  31040-3 0  9992
2 25319  86.4000 169.6294 0001032 185.5005 174.6183 14.40603495397754
IRIDIUM 71              
1 25320U 98026B   24358.58796786  .00001067  00000+0  32716-3 0  9990
2 25320  86.3995 164.2858 0001294  13.2338 346.8895 14.40844144398304
IRIDIUM 73              
1 25344U 98032C   24358.40940786  .00001692  00000+0  42068-3 0  9990
2 25344  86.4425 121.4711 0001601 108.5010 251.6369 14.51264345405061
IRIDIUM 82              
1 25467U 98051A   24358.50715802  .00029844  00000+0  11676-2 0  9996
2 25467  86.3734 195.2850 0103879 238.7859 120.3173 15.20728464397158
